GLOBALSTAR M024 [-]     
1 25883U 99043A   23258.56608406 -.00000070  00000+0 -17791-3 0  9992
2 25883  52.0048  26.0623 0002022 117.1921 326.8304 11.10151269 43712
GLOBALSTAR M027 [-]     
1 25884U 99043B   23258.48533054 -.00000049  00000+0  54479-3 0  9999
2 25884  52.0199  86.0830 0021915  37.9916 322.2419 11.04365813 70454
GLOBALSTAR M054 [-]     
1 25885U 99043C   23258.89153464 -.00000090  00000+0 -47879-3 0  9991
2 25885  52.0161 319.9273 0004703 142.3436  27.2037 11.39205406 46402
GLOBALSTAR M053 [-]     
1 25886U 99043D   23258.39304649 -.00000073  00000+0 -12892-3 0  9998
2 25886  51.9955 232.6670 0003515  70.3195  99.7784 11.27650814 47156
GLOBALSTAR M058 [-]     
1 25907U 99049A   23258.53995359 -.00000092  00000+0 -95619-4 0  9998
2 25907  51.9975  19.8186 0002877 110.9829 249.1314 11.93165842465063
GLOBALSTAR M050 [-]     
1 25908U 99049B   23258.91536954 -.00000007  00000+0  91465-3 0  9992
2 25908  51.9987  74.3242 0008744 190.9346 317.3951 12.07422600 75579
GLOBALSTAR M033 [-]     
1 25909U 99049C   23258.97406372  .00000026  00000+0  11304-2 0  9992
2 25909  51.9942 350.2176 0011828  43.1435 317.0338 12.20262644 90318
GLOBALSTAR M055 [-]     
1 25910U 99049D   23258.59818433 -.00000072  00000+0  18901-3 0  9990
2 25910  52.0042  33.1919 0006380 237.4515 122.5720 12.29386507 89494
